[{"OBJECT_NAME":"STARLINK-30941","OBJECT_ID":"2023-186C","EPOCH":"2026-03-09T22:00:01.999584","MEAN_MOTION":15.20411932,"ECCENTRICITY":0.00023031,"INCLINATION":43.0007,"RA_OF_ASC_NODE":65.7447,"ARG_OF_PERICENTER":254.5511,"MEAN_ANOMALY":19.3281,"EPHEMERIS_TYPE":0,"CLASSIFICATION_TYPE":"U","NORAD_CAT_ID":58475,"ELEMENT_SET_NO":999,"REV_AT_EPOCH":552,"BSTAR":0.084936968,"MEAN_MOTION_DOT":0.02068285,"MEAN_MOTION_DDOT":0},{"OBJECT_NAME":"FENGYUN 1C DEB","OBJECT_ID":"1999-025AQG","EPOCH":"2026-03-09T10:43:06.043872","MEAN_MOTION":15.25746961,"ECCENTRICITY":0.00178142,"INCLINATION":98.9311,"RA_OF_ASC_NODE":250.2123,"ARG_OF_PERICENTER":328.3876,"MEAN_ANOMALY":31.6286,"EPHEMERIS_TYPE":0,"CLASSIFICATION_TYPE":"U","NORAD_CAT_ID":30674,"ELEMENT_SET_NO":999,"REV_AT_EPOCH":98658,"BSTAR":0.015201752,"MEAN_MOTION_DOT":0.00411052,"MEAN_MOTION_DDOT":0}]
